STARLINK-4024           
1 52599U 22052B   25049.15795918 -.00000455  00000+0 -10482-4 0  9990
2 52599  53.2164 205.4547 0001154  97.5217 262.5907 15.08849053153601
STARLINK-4026           
1 52600U 22052C   25049.13587248  .00000902  00000+0  74783-4 0  9995
2 52600  53.2174 205.4518 0001404  95.7026 264.4127 15.08839550153605
STARLINK-4027           
1 52601U 22052D   25049.14322872  .00002896  00000+0  19999-3 0  9998
2 52601  53.2157 205.4168 0001465  84.0059 276.1100 15.08842219153609
STARLINK-4012           
1 52602U 22052E   25049.13954818 -.00001164  00000+0 -55093-4 0  9994
2 52602  53.2166 205.4331 0001262  87.4406 272.6731 15.08833499153601
STARLINK-4016           
1 52603U 22052F   25049.12578867  .00000690  00000+0  61427-4 0  9999
2 52603  53.2160 205.5039 0001245  85.5952 274.5182 15.08840436153608
STARLINK-4013           
1 52604U 22052G   25049.13219366  .00002047  00000+0  14669-3 0  9990
2 52604  53.2163 205.4672 0001255  79.8202 280.2932 15.08837539152807
STARLINK-4000           
1 52605U 22052H   25049.14553914  .00001111  00000+0  87855-4 0  9991
2 52605  53.2165 210.1857 0001312  92.1331 267.9811 15.08842300152735
STARLINK-3928           
1 52606U 22052J   25049.12850890  .00000762  00000+0  65978-4 0  9996
2 52606  53.2166 205.4837 0001279  90.9536 269.1603 15.08837759152800
STARLINK-3947           
1 52607U 22052K   25049.16028878  .00000168  00000+0  28647-4 0  9996
2 52607  53.2160 210.3497 0001239  84.7641 275.3493 15.08839454152727
STARLINK-3979           
1 52608U 22052L   25048.72368623  .00007571  00000+0  49283-3 0  9996
2 52608  53.2155 207.3013 0001147  89.2439 270.8684 15.08872232152740
STARLINK-3997           
1 52609U 22052M   25048.71267170 -.00000871  00000+0 -36680-4 0  9997
2 52609  53.2164 207.2992 0001280  93.6600 266.4538 15.08831438152745
STARLINK-3998           
1 52610U 22052N   25049.16301121  .00000870  00000+0  72760-4 0  9990
2 52610  53.2168 210.3273 0001306  83.6456 276.4684 15.08839804152732
STARLINK-3980           
1 52611U 22052P   25049.15564908 -.00001080  00000+0 -49819-4 0  9999
2 52611  53.2169 210.3566 0001212  63.1047 297.0069 15.08831490152733
STARLINK-4002           
1 52612U 22052Q   25049.11746816 -.00000041  00000+0  15493-4 0  9992
2 52612  53.2175 205.5330 0001362  90.8319 269.2829 15.08841807152807
STARLINK-3982           
1 52614U 22052S   25049.10366938 -.00001286  00000+0 -62760-4 0  9998
2 52614  53.2156 195.5942 0001226  87.1536 272.9597 15.08833903152939
STARLINK-4011           
1 52615U 22052T   25049.15199278 -.00000210  00000+0  49225-5 0  9992
2 52615  53.2164 210.3790 0001232  95.7838 264.3295 15.08826502152727
STARLINK-4015           
1 52616U 22052U   25048.69886820  .00000657  00000+0  59394-4 0  9998
2 52616  53.2168 197.4113 0001282  92.7088 267.4051 15.08840020152876
STARLINK-3996           
1 52617U 22052V   25049.55263052  .00000610  00000+0  56447-4 0  9996
2 52617  53.2172 193.5784 0001350  91.1044 269.0103 15.08836293152990
STARLINK-3983           
1 52618U 22052W   25049.55631083  .00000463  00000+0  47200-4 0  9993
2 52618  53.2166 193.5621 0001214  89.2318 270.8813 15.08835741152990
STARLINK-3741           
1 52619U 22052X   25049.54895747  .00000587  00000+0  54994-4 0  9997
2 52619  53.2166 193.5829 0001253  91.8061 268.3075 15.08838225152990
STARLINK-3975           
1 52620U 22052Y   25049.14829180  .00000198  00000+0  30518-4 0  9997
2 52620  53.2178 210.3975 0001384  92.8222 267.2928 15.08836599152728
STARLINK-3984           
1 52621U 22052Z   25049.54159250  .00004699  00000+0  31332-3 0  9990
2 52621  53.2176 193.6273 0001293  97.4794 262.6345 15.08819951152999
STARLINK-4008           
1 52622U 22052AA  25048.71404786  .00002089  00000+0  14932-3 0  9994
2 52622  53.2161 212.3420 0001267  80.5449 279.5686 15.08840992152666
STARLINK-3986           
1 52623U 22052AB  25049.53791276  .00001016  00000+0  81896-4 0  9992
2 52623  53.2170 193.6446 0001372  89.1479 270.9670 15.08835019152999
STARLINK-3988           
1 52625U 22052AD  25049.53423247  .00004049  00000+0  27234-3 0  9998
2 52625  53.2164 193.6607 0001384  89.6729 270.4422 15.08843667152997
STARLINK-3990           
1 52626U 22052AE  25049.54526684 -.00001846  00000+0 -97895-4 0  9994
2 52626  53.2159 193.6099 0001268  86.4928 273.6209 15.08845012152998
STARLINK-3992           
1 52627U 22052AF  25049.12573953 -.00002093  00000+0 -11341-3 0  9996
2 52627  53.2170 195.4975 0001841  84.1045 276.0157 15.08849273152944
STARLINK-4001           
1 52628U 22052AG  25049.17404202  .00001390  00000+0  10539-3 0  9997
2 52628  53.2175 210.2768 0001363  91.1140 269.0009 15.08847742152733
STARLINK-4022           
1 52629U 22052AH  25049.11838342  .00001652  00000+0  12181-3 0  9994
2 52629  53.2171 195.4898 0001384  86.4155 273.6996 15.08845869152930
STARLINK-3989           
1 52630U 22052AJ  25049.13310845  .00000662  00000+0  59650-4 0  9994
2 52630  53.2165 195.4619 0001246  85.2361 274.8773 15.08842302152934
STARLINK-3794           
1 52631U 22052AK  25049.38431154  .00002110  00000+0  15064-3 0  9999
2 52631  53.2177 194.3453 0001549  86.5929 273.5240 15.08837899152987
STARLINK-3995           
1 52632U 22052AL  25049.12942060  .00001517  00000+0  11339-3 0  9996
2 52632  53.2169 195.4811 0001438  76.7508 283.3645 15.08846062152946
STARLINK-3994           
1 52633U 22052AM  25049.37231070  .00000887  00000+0  73839-4 0  9999
2 52633  53.2168 194.3894 0001291  92.9328 267.1812 15.08839103152980
STARLINK-3974           
1 52634U 22052AN  25049.12207546  .00000785  00000+0  67428-4 0  9998
2 52634  53.2170 195.5412 0001462  83.2818 276.8341 15.08839383152939
STARLINK-3978           
1 52635U 22052AP  25049.61978825  .00002232  00000+0  15826-3 0  9991
2 52635  53.2175 183.2784 0001946  84.0497 276.0717 15.08844411153152
STARLINK-3967           
1 52636U 22052AQ  25049.37967153 -.00000247  00000+0  25794-5 0  9999
2 52636  53.2171 194.3558 0001288  84.0468 276.0671 15.08842467152975
STARLINK-3961           
1 52637U 22052AR  25049.54987936  .00005611  00000+0  37036-3 0  9999
2 52637  53.2160 183.5910 0001244  64.1475 295.9646 15.08837430153949
STARLINK-3941           
1 52638U 22052AS  25049.11102746 -.00001141  00000+0 -53591-4 0  9992
2 52638  53.2167 195.5630 0001346  91.7263 268.3883 15.08842876153748
STARLINK-3968           
1 52639U 22052AT  25049.53883242  .00000696  00000+0  61818-4 0  9999
2 52639  53.2166 183.6396 0001023  80.1156 279.9952 15.08838789153945
STARLINK-3977           
1 52640U 22052AU  25049.62347450  .00001630  00000+0  12047-3 0  9995
2 52640  53.2177 183.2895 0001681  89.9924 270.1261 15.08838672153148
STARLINK-3991           
1 52641U 22052AV  25049.62077152  .00000390  00000+0  42605-4 0  9991
2 52641  53.2179 183.4762 0001444  84.8537 275.2620 15.08841675153150
STARLINK-3971           
1 52642U 22052AW  25049.54619129  .00000590  00000+0  55132-4 0  9990
2 52642  53.2180 183.6089 0001422  87.2230 272.8925 15.08836586153134
STARLINK-3963           
1 52643U 22052AX  25049.52138148  .00000336  00000+0  39231-4 0  9996
2 52643  53.2167 183.6871 0001345 100.5403 259.5740 15.08837859153135
STARLINK-3985           
1 52644U 22052AY  25049.54251161 -.00000002  00000+0  17982-4 0  9990
2 52644  53.2167 183.6240 0001248  86.8737 273.2398 15.08837885153135
STARLINK-3973           
1 52645U 22052AZ  25049.53148418 -.00001012  00000+0 -45505-4 0  9995
2 52645  53.2165 183.7773 0001167  80.4922 279.6202 15.08835916153139
STARLINK-3832           
1 52646U 22052BA  25049.53515495  .00000108  00000+0  24900-4 0  9998
2 52646  53.2177 183.6982 0001284  95.1005 265.0134 15.08835485153144
STARLINK-3846           
1 52647U 22052BB  25049.52412411  .00001097  00000+0  87029-4 0  9991
2 52647  53.2172 183.8117 0000963  78.1812 281.9288 15.08832039153141
STARLINK-3854           
1 52648U 22052BC  25049.52779182 -.00000313  00000+0 -15963-5 0  9994
2 52648  53.2180 183.6923 0001562  91.5146 268.6026 15.08832479153138
STARLINK-3868           
1 52649U 22052BD  25049.63449517  .00002179  00000+0  15495-3 0  9991
2 52649  53.2187 183.0632 0001592  98.4274 261.6899 15.08839904153162
STARLINK-3891           
1 52650U 22052BE  25049.60231881 -.00000123  00000+0  10378-4 0  9997
2 52650  53.2167 173.4633 0001523  82.2817 277.8349 15.08845262153291
STARLINK-4004           
1 52656U 22053A   25049.36728626  .00001138  00000+0  89594-4 0  9997
2 52656  53.2165  79.4179 0001429  54.6743 305.4383 15.08841017153099
STARLINK-4084           
1 52657U 22053B   25049.33788853  .00001192  00000+0  92948-4 0  9990
2 52657  53.2172  79.8600 0001634  91.2079 268.9100 15.08840973153380
STARLINK-4082           
1 52658U 22053C   25049.37000859 -.00001539  00000+0 -78639-4 0  9996
2 52658  53.2177  79.3971 0001811  86.4873 273.6327 15.08826756153216
STARLINK-3960           
1 52659U 22053D   25049.36632221 -.00002838  00000+0 -16029-3 0  9997
2 52659  53.2158  79.3648 0001448  83.9755 276.1403 15.08844278153205
STARLINK-4081           
1 52660U 22053E   25049.36265368  .00000853  00000+0  71659-4 0  9997
2 52660  53.2168  79.4302 0001455  90.2938 269.8221 15.08835498153096
STARLINK-4042           
1 52661U 22053F   25049.29273217  .00000051  00000+0  21319-4 0  9990
2 52661  53.2171  79.7410 0001556 103.0270 257.0896 15.08839957153011
STARLINK-4044           
1 52662U 22053G   25049.35161983  .00005290  00000+0  35002-3 0  9997
2 52662  53.2152  79.4812 0001265  84.5878 275.5258 15.08856873153022
STARLINK-4037           
1 52663U 22053H   25049.34793213 -.00000313  00000+0 -15829-5 0  9994
2 52663  53.2161  79.4996 0001679  91.2841 268.8343 15.08843792153026
STARLINK-4070           
1 52664U 22053J   25049.35524116 -.00030825  00000+0 -19196-2 0  9999
2 52664  53.2170  79.4644 0002020  70.8263 289.2947 15.08977918153024
